STARLINK-1126
1 44951U 20001AP  24101.25001157  .00227313  00000+0  10451-2 0  9995
2 44951  53.0051  51.2416 0003733  58.3641 117.7696 15.82456896238476
STARLINK-30866
1 58237U 23171H   24100.91948177  .00000081  00000+0  21084-4 0  9999
2 58237  43.0024 122.7898 0000823 283.0772  76.9979 15.02535370 24610
STARLINK-5872
1 57232U 23094Q   24101.46821146  .00002576  00000+0  20568-3 0  9990
2 57232  43.0013 223.8942 0001083 276.3277  83.7442 15.02543880 42334
STARLINK-1177
1 45078U 20006AL  24101.16415731  .00009920  00000+0  68348-3 0  9999
2 45078  53.0526 162.4208 0001246 101.0041 259.1089 15.06422098231445
STARLINK-5786
1 56032U 23042AY  24101.40588588 -.00003411  00000+0 -23749-3 0  9999
2 56032  43.0034 237.0889 0001198 263.2978  96.7728 15.02550392 58368
STARLINK-4136
1 53260U 22086U   24101.38102569  .00000458  00000+0  46844-4 0  9992
2 53260  53.2164  88.9463 0001447  96.0730 264.0427 15.08843354 95468
STARLINK-4353
1 53214U 22084AB  24101.43268601  .00002010  00000+0  16097-3 0  9997
2 53214  97.6533 163.2362 0001758  91.3693 268.7733 15.01267709 94934
STARLINK-4198
1 52858U 22062AE  24100.79315574  .00000123  00000+0  25847-4 0  9993
2 52858  53.2138 281.6125 0001555  82.4031 277.7138 15.08837849100415
STARLINK-1011
1 44717U 19074E   24101.40927892 -.00003722  00000+0 -23103-3 0  9990
2 44717  53.0539 101.3199 0001311  86.9225 273.1914 15.06410679243399
STARLINK-30781
1 58123U 23162F   24100.89653956  .00002868  00000+0  22726-3 0  9996
2 58123  43.0053 330.1106 0001209 266.6471  93.4233 15.02543453 27188
STARLINK-4719
1 53774U 22111B   24101.22922062 -.00001501  00000+0 -76218-4 0  9992
2 53774  53.2167 179.5143 0001334  86.9031 273.2114 15.08843742 87300
STARLINK-4699
1 53716U 22107S   24101.42331458 -.00000155  00000+0  83523-5 0  9999
2 53716  53.2173 148.4388 0001933  81.0465 279.0746 15.08840867 88548
STARLINK-30425
1 57850U 23141L   24101.53751778  .00826004  00000+0  31134-1 0  9999
2 57850  53.0842 287.2848 0007386 123.5810 236.5893 15.23889121 33431
STARLINK-30485
1 57920U 23147H   24100.85697287  .00001251  00000+0  10768-3 0  9992
2 57920  43.0034 163.4606 0001158 264.2821  95.7890 15.02534243 31499
STARLINK-2493
1 48150U 21027BL  24101.12867386  .00002013  00000+0  15399-3 0  9994
2 48150  53.0546  47.5763 0001562 101.0832 259.0333 15.06406874167015
STARLINK-1928
1 46758U 20074V   24101.35767079  .00000662  00000+0  63293-4 0  9995
2 46758  53.0567 221.5503 0001121  89.5887 270.5231 15.06405082191378
STARLINK-1219
1 45210U 20012AJ  24100.90984219  .00001570  00000+0  12423-3 0  9993
2 45210  53.0557 283.5596 0001318  88.7474 271.3666 15.06402542229685
STARLINK-2317
1 47982U 21024F   24101.17890457  .00004885  00000+0  34650-3 0  9993
2 47982  53.0524 162.3529 0001150  98.5564 261.5555 15.06411447169720
STARLINK-30562
1 58033U 23156F   24100.70830569 -.00001531  00000+0 -85960-4 0  9994
2 58033  53.1124  93.9706 0001509  89.1211 270.9951 15.05582847 29175
STARLINK-3134
1 49434U 21104AC  24101.44223910  .00000362  00000+0  40865-4 0  9992
2 49434  53.2182 123.8290 0001582  88.2232 271.8942 15.08833650134306
STARLINK-2614
1 48380U 21038AD  24100.70856272  .00000085  00000+0  24614-4 0  9994
2 48380  53.0556 249.9752 0001798  89.3871 270.7324 15.06391117161803
STARLINK-2486
1 48143U 21027BD  24101.45906304  .00001758  00000+0  13690-3 0  9993
2 48143  53.0552   1.1918 0002125  86.7535 273.3697 15.06402880167685
STARLINK-30465
1 57891U 23146A   24101.54200178  .00000411  00000+0  45486-4 0  9997
2 57891  43.0035 147.1490 0001078 274.9128  85.1591 15.02538763 31948
STARLINK-31350
1 58933U 24027C   24100.87607830  .00015602  00000+0  57486-3 0  9995
2 58933  53.1550 314.3601 0001333 110.7531 249.3612 15.28014664 10358
STARLINK-31208
1 59037U 24038Q   24101.42627685 -.00002726  00000+0 -94460-4 0  9994
2 59037  43.0022   2.1681 0000868 276.0392  84.0360 15.25896600  8120
STARLINK-3069
1 49176U 21082AY  24101.39586097  .00001328  00000+0  11911-3 0  9994
2 49176  70.0003 215.0972 0003044 268.8766  91.2045 14.98328675142369
STARLINK-2290
1 47994U 21024T   24101.56362057  .00013510  00000+0  92339-3 0  9992
2 47994  53.0552 205.6243 0001374  65.5085 294.6047 15.06431017169164
STARLINK-3875
1 52483U 22049AJ  24100.95093299  .00002418  00000+0  16995-3 0  9999
2 52483  53.2161 305.8854 0001112 105.8035 254.3080 15.08842620107064
STARLINK-4032
1 52688U 22053AJ  24100.82258139  .00001054  00000+0  84297-4 0  9999
2 52688  53.2179  41.3393 0001563  86.8361 273.2810 15.08837999105613
STARLINK-6111
1 57102U 23090B   24101.49851189 -.00000027  00000+0  13073-4 0  9999
2 57102  43.0028 108.7417 0001230 267.3576  92.7125 15.02532569 44242
STARLINK-1871
1 47157U 20088AM  24101.54980168  .00011043  00000+0  75837-3 0  9992
2 47157  53.0538 195.6875 0001107  94.4184 265.6931 15.06433395186860
STARLINK-5857
1 55946U 23037AJ  24100.65558657 -.00000184  00000+0 -76044-5 0  9998
2 55946  69.9986 246.8845 0003353 269.1232  90.9543 14.98327884 59271
STARLINK-2687
1 48466U 21040AQ  24101.19872500  .00001161  00000+0  96828-4 0  9990
2 48466  53.0544  87.2624 0001385  94.5681 265.5466 15.06397878162490
STARLINK-2362
1 47902U 21021AU  24101.50373272  .00004414  00000+0  31498-3 0  9995
2 47902  53.0533 175.8943 0001317  72.4448 287.6684 15.06408341170338
STARLINK-31281
1 59077U 24041D   24101.20865521  .00000357  00000+0  23495-4 0  9997
2 59077  42.9958 289.7134 0001914 279.6617  80.4018 15.25898935  7579
STARLINK-3322
1 50838U 22001AM  24101.17877898  .00003905  00000+0  25196-3 0  9994
2 50838  53.2184  70.0983 0001489  95.3582 264.7581 15.10481095126084
STARLINK-3059
1 49181U 21082BD  24101.42553382 -.00000165  00000+0 -60263-5 0  9991
2 49181  69.9974 255.0253 0002934 271.5169  88.5654 14.98330827142558
STARLINK-3147
1 49410U 21104C   24100.35758161  .00000152  00000+0  27624-4 0  9991
2 49410  53.2166 128.5501 0001479  97.9680 262.1481 15.08836756134141
STARLINK-5735
1 55603U 23020AL  24100.92843995  .00001396  00000+0  11836-3 0  9992
2 55603  43.0034 188.8692 0001313 272.4429  87.6263 15.02538543 63956
STARLINK-3734
1 52112U 22029AA  24100.92240962  .00004291  00000+0  28748-3 0  9994
2 52112  53.2185 336.0063 0002180  90.1141 270.0101 15.08848679115290
STARLINK-1833
1 46759U 20074W   24101.35306822  .00000946  00000+0  82356-4 0  9997
2 46759  53.0639 231.5718 0001118  93.8926 266.2191 15.06403673190949
STARLINK-1503
1 45745U 20038R   24100.50348186  .00005252  00000+0  37117-3 0  9995
2 45745  53.0526 135.3853 0001482  85.7497 274.3661 15.06405108210801
STARLINK-3419
1 51463U 22010H   24100.90766395  .00004967  00000+0  32969-3 0  9993
2 51463  53.2190 176.0765 0000844  89.5294 270.5795 15.08869027121023
STARLINK-2645
1 48444U 21040S   24101.23281133 -.00001487  00000+0 -80968-4 0  9998
2 48444  53.0548  77.1092 0001358  95.6540 264.4604 15.06407312162636
STARLINK-2187
1 48562U 21041K   24101.51386779  .00001546  00000+0  12265-3 0  9991
2 48562  53.0555  25.8496 0001405  93.7265 266.3885 15.06409398160376
STARLINK-1290
1 45392U 20019AJ  24101.25001157  .00436277  84451-4  12836-2 0  9991
2 45392  52.9664 231.0894 0003337 295.5540  83.7318 15.92143923226740
STARLINK-3859
1 52470U 22049V   24100.01528972  .00001143  00000+0  89907-4 0  9991
2 52470  53.2199 320.0815 0001200  90.1947 269.9183 15.08841469106620
STARLINK-5880
1 57220U 23094C   24101.04393982  .00002223  00000+0  17957-3 0  9990
2 57220  43.0037 226.7375 0001365 265.0493  95.0194 15.02538244 42201
STARLINK-30517
1 57995U 23153E   24101.53280432 -.00001509  00000+0 -96609-4 0  9994
2 57995  43.0033 262.4861 0001580 267.9466  92.1195 15.02550858 29864
STARLINK-30130
1 56697U 23067K   24101.08403640 -.00000129  00000+0  54816-5 0  9995
2 56697  43.0029 110.3103 0000872 271.7021  88.3721 15.02535323 49729
STARLINK-3112
1 49421U 21104P   24101.43114821  .00000093  00000+0  23967-4 0  9992
2 49421  53.2173 123.5345 0001477  95.6373 264.4788 15.08839127134290
STARLINK-5478
1 55642U 23021Q   24101.22607549  .00000293  00000+0  32389-4 0  9995
2 55642  69.9989 145.7226 0003249 271.8325  88.2461 14.98328808 63860
STARLINK-5217
1 54098U 22136AZ  24101.37970153  .00003557  00000+0  25213-3 0  9998
2 54098  53.2245 228.9043 0001150  91.3256 268.7868 15.07206072 82038
STARLINK-2245
1 48589U 21041AN  24101.48437913  .00003336  00000+0  24271-3 0  9992
2 48589  53.0569  25.9802 0001844  83.3155 276.8044 15.06410458160419
STARLINK-1540
1 46051U 20055AA  24101.46549880 -.00000001  00000+0  18836-4 0  9991
2 46051  53.0558  11.0618 0001189  86.8950 273.2175 15.06401298203284
STARLINK-2341
1 47794U 21018H   24100.35368330  .00009140  00000+0  80208-4 0  9996
2 47794  53.0535 119.6327 0001152  98.4939 261.6208 15.69711441171276
STARLINK-31137
1 58686U 23211V   24101.19145977  .00000243  00000+0  19129-4 0  9997
2 58686  43.0033  63.5414 0001319 255.4187 104.6518 15.25921725 16985
STARLINK-4530
1 53393U 22097F   24101.14091594  .00001578  00000+0  11724-3 0  9992
2 53393  53.2214  20.0323 0001396  92.0373 268.0779 15.08833251 92562
STARLINK-1777
1 47122U 20088A   24101.24756575  .00008573  00000+0  59355-3 0  9995
2 47122  53.0573 197.0477 0001755 102.4335 257.6850 15.06410253186861
STARLINK-31406
1 59017U 24036V   24101.22549421  .00035604  00000+0  12907-2 0  9992
2 59017  53.1596  81.1271 0001271 105.4441 254.6700 15.28050674  8429
STARLINK-1791
1 46692U 20073Y   24101.16877592  .00004803  00000+0  34098-3 0  9993
2 46692  53.0535 152.4006 0001174  90.7409 269.3714 15.06412131192110
STARLINK-31333
1 58971U 24031G   24100.93420094  .00001610  00000+0  70791-4 0  9993
2 58971  53.1586 302.1372 0001957  76.5993 283.5225 15.28023416  9557
STARLINK-6054
1 56465U 23064T   24101.16671477 -.00000286  00000+0 -16204-4 0  9992
2 56465  70.0006  65.5237 0002768 267.7986  92.2856 14.98327687 51965
STARLINK-3361
1 51151U 22005AZ  24101.53418102  .00001838  00000+0  13353-3 0  9991
2 51151  53.2158 202.9544 0000730  90.8768 269.2307 15.08835394124319
